[{"Address Line 1": "0630 Annalise Rue Apt. 686", "Address Line 2": "Apt. 221", "City": "Aleasebury", "Zipcode": "39516", "Company Website": "hettinger.com", "Company Description": "harness scalable interfaces", "Phone": "006-152-4393", "State": "Mississippi", "Company Name": "Douglas, Walsh and Luettgen"}, {"Address Line 1": "604 Irine Via Apt. 032", "Address Line 2": "Suite 096", "City": "South Raetown", "Zipcode": "46391", "Company Website": "shieldsledner.info", "Company Description": "leverage customized eyeballs", "Phone": "(959)326-7147x005", "State": "Georgia", "Company Name": "Stehr, Beahan and Spencer"}, {"Address Line 1": "821 Weston Streets Suite 725", "Address Line 2": "Suite 753", "City": "Lake Garrison", "Zipcode": "70350", "Company Website": "reynolds.org", "Company Description": "incubate wireless bandwidth", "Phone": "418-431-6723x928", "State": "Texas", "Company Name": "Torphy-Larkin"}, {"Address Line 1": "2489 Kuvalis Pine Suite 331", "Address Line 2": "Apt. 624", "City": "Port Lunaburgh", "Zipcode": "71359", "Company Website": "skiles.net", "Company Description": "facilitate intuitive bandwidth", "Phone": "193-181-8500", "State": "Connecticut", "Company Name": "Ryan and Sons"}, {"Address Line 1": "00827 Thiel Center", "Address Line 2": "Apt. 298", "City": "South Fayetteside", "Zipcode": "25740", "Company Website": "haley.com", "Company Description": "scale seamless e-business", "Phone": "(067)591-1928", "State": "Indiana", "Company Name": "Kulas, White and Weimann"}, {"Address Line 1": "8666 Smith Park Apt. 572", "Address Line 2": "Apt. 498", "City": "West Lafayetteshire", "Zipcode": "56259", "Company Website": "leannon.net", "Company Description": "reinvent robust content", "Phone": "794.091.3608x97031", "State": "Alabama", "Company Name": "Schmidt and Sons"}, {"Address Line 1": "0230 Roselyn Canyon Apt. 517", "Address Line 2": "Apt. 892", "City": "North Jocelyntown", "Zipcode": "21207", "Company Website": "torphy.info", "Company Description": "seize world-class paradigms", "Phone": "661.652.2262x491", "State": "RhodeIsland", "Company Name": "Nitzsche Inc"}, {"Address Line 1": "7298 Classie Expressway", "Address Line 2": "Suite 666", "City": "Hilleryview", "Zipcode": "00559", "Company Website": "turner.com", "Company Description": "engineer front-end deliverables", "Phone": "(854)432-4255", "State": "Colorado", "Company Name": "Leffler Inc"}, {"Address Line 1": "49209 Osinski Cliff", "Address Line 2": "Apt. 199", "City": "New Reinamouth", "Zipcode": "32460", "Company Website": "grimes.org", "Company Description": "cultivate front-end portals", "Phone": "1-609-327-9899x305", "State": "Ohio", "Company Name": "Hahn, Botsford and Brown"}, {"Address Line 1": "954 Howe Harbor Suite 413", "Address Line 2": "Suite 933", "City": "Wittingchester", "Zipcode": "00661", "Company Website": "corkery.net", "Company Description": "productize virtual interfaces", "Phone": "075-393-9997", "State": "Ohio", "Company Name": "West, Reichel and Keebler"}, {"Address Line 1": "2328 Cormier Point Suite 737", "Address Line 2": "Apt. 734", "City": "West Mamehaven", "Zipcode": "37131", "Company Website": "frami.org", "Company Description": "deploy clicks-and-mortar schemas", "Phone": "06659376190", "State": "Wisconsin", "Company Name": "Bahringer-Schroeder"}, {"Address Line 1": "93579 Streich Ports", "Address Line 2": "Suite 555", "City": "Hezekiahville", "Zipcode": "28172", "Company Website": "ratke.info", "Company Description": "envisioneer revolutionary technologies", "Phone": "(673)507-4050x65914", "State": "Missouri", "Company Name": "Steuber-Wisoky"}, {"Address Line 1": "858 Hermiston Place Apt. 103", "Address Line 2": "Suite 928", "City": "East Chelsi", "Zipcode": "45705", "Company Website": "kerluke.com", "Company Description": "harness vertical supply-chains", "Phone": "409.574.4323x0058", "State": "Texas", "Company Name": "Hegmann-Marvin"}, {"Address Line 1": "47392 Darin Mountains Apt. 224", "Address Line 2": "Suite 060", "City": "Port Hillery", "Zipcode": "60627", "Company Website": "jonesbeier.com", "Company Description": "strategize turn-key e-markets", "Phone": "577.181.2618x07734", "State": "Kentucky", "Company Name": "Brakus Group"}, {"Address Line 1": "4154 Windler Gardens", "Address Line 2": "Apt. 989", "City": "Nicolasfort", "Zipcode": "71747", "Company Website": "weimann.com", "Company Description": "embrace back-end relationships", "Phone": "01207834883", "State": "Alabama", "Company Name": "Schowalter-Cole"}, {"Address Line 1": "979 Zboncak Points Suite 687", "Address Line 2": "Apt. 964", "City": "Stehrstad", "Zipcode": "79366", "Company Website": "eichmann.info", "Company Description": "evolve granular communities", "Phone": "1-895-611-3011x89080", "State": "Maryland", "Company Name": "Ledner-Bernier"}, {"Address Line 1": "536 Deyanira Park", "Address Line 2": "Suite 189", "City": "Jammieberg", "Zipcode": "85136", "Company Website": "rennerhowell.com", "Company Description": "synergize distributed e-commerce", "Phone": "(408)979-1021x7397", "State": "SouthCarolina", "Company Name": "Raynor, Weimann and Konopelski"}, {"Address Line 1": "752 Rodrick Circle", "Address Line 2": "Suite 383", "City": "Oneidaberg", "Zipcode": "51802", "Company Website": "watsica.biz", "Company Description": "harness e-business e-services", "Phone": "1-826-817-9015x5661", "State": "Idaho", "Company Name": "Bartoletti Group"}, {"Address Line 1": "4331 Marylee Lakes", "Address Line 2": "Suite 661", "City": "East Jacquelineside", "Zipcode": "99447", "Company Website": "harbermorar.org", "Company Description": "e-enable robust experiences", "Phone": "307-230-7637x205", "State": "Wyoming", "Company Name": "Ortiz, Rohan and Gerhold"}, {"Address Line 1": "8024 Artis Light", "Address Line 2": "Apt. 974", "City": "Lawsonbury", "Zipcode": "93704", "Company Website": "cruickshank.com", "Company Description": "matrix collaborative initiatives", "Phone": "1-268-310-4524x504", "State": "Nebraska", "Company Name": "Schamberger and Sons"}, {"Address Line 1": "1202 Green Land Apt. 168", "Address Line 2": "Apt. 819", "City": "Torphychester", "Zipcode": "54379", "Company Website": "kertzmann.com", "Company Description": "implement efficient vortals", "Phone": "(328)645-4991x0205", "State": "Oregon", "Company Name": "Schoen LLC"}, {"Address Line 1": "1907 Mitchell Glens Suite 694", "Address Line 2": "Apt. 848", "City": "Johnsberg", "Zipcode": "16326", "Company Website": "mullerconn.org", "Company Description": "transform leading-edge ROI", "Phone": "393-805-0884", "State": "Iowa", "Company Name": "Stroman, Dare and Stokes"}, {"Address Line 1": "90678 Vera Trail Apt. 541", "Address Line 2": "Suite 028", "City": "Kundehaven", "Zipcode": "57452", "Company Website": "aufderhar.biz", "Company Description": "drive integrated platforms", "Phone": "1-803-469-1308x884", "State": "SouthDakota", "Company Name": "Towne, Metz and Hilll"}, {"Address Line 1": "2922 Mason Lake", "Address Line 2": "Apt. 640", "City": "New Sorenchester", "Zipcode": "68179", "Company Website": "gaylord.com", "Company Description": "visualize extensible e-business", "Phone": "534-782-9518x43137", "State": "NewMexico", "Company Name": "Ryan-O'Connell"}, {"Address Line 1": "8599 Alonso Locks", "Address Line 2": "Suite 977", "City": "Fritschside", "Zipcode": "56303", "Company Website": "hartmann.net", "Company Description": "morph front-end action-items", "Phone": "308-321-0102x37490", "State": "SouthCarolina", "Company Name": "Ortiz, Dickinson and Cruickshank"}, {"Address Line 1": "7209 Rosenbaum Mountain Suite 926", "Address Line 2": "Suite 833", "City": "Port Doreneborough", "Zipcode": "21614", "Company Website": "howell.com", "Company Description": "scale efficient channels", "Phone": "732-041-4525x9059", "State": "Alaska", "Company Name": "Wisoky-Keebler"}, {"Address Line 1": "2222 Connelly Inlet", "Address Line 2": "Suite 713", "City": "East Kenziemouth", "Zipcode": "69504", "Company Website": "walsh.com", "Company Description": "strategize impactful communities", "Phone": "496.372.9735x6091", "State": "Arizona", "Company Name": "Jenkins-Christiansen"}, {"Address Line 1": "28300 Becker Vista Apt. 279", "Address Line 2": "Suite 714", "City": "Port Dominiquemouth", "Zipcode": "62205", "Company Website": "wunschhodkiewicz.com", "Company Description": "innovate vertical action-items", "Phone": "1-594-586-5703", "State": "Iowa", "Company Name": "Hagenes, Harvey and Lockman"}, {"Address Line 1": "667 Rath Brooks", "Address Line 2": "Apt. 870", "City": "Goodwinland", "Zipcode": "48916", "Company Website": "beierfarrell.org", "Company Description": "aggregate seamless solutions", "Phone": "695-320-0862x21752", "State": "RhodeIsland", "Company Name": "Feest PLC"}, {"Address Line 1": "565 Goldner Mission", "Address Line 2": "Suite 525", "City": "Port Sanaifort", "Zipcode": "69412", "Company Website": "sauer.com", "Company Description": "transition robust infrastructures", "Phone": "1-391-362-5801", "State": "Tennessee", "Company Name": "Bednar-Donnelly"}, {"Address Line 1": "49944 Schmidt Shore Suite 314", "Address Line 2": "Suite 969", "City": "Nikolausshire", "Zipcode": "37254", "Company Website": "reynoldsdavis.net", "Company Description": "incubate best-of-breed systems", "Phone": "125.064.3448x989", "State": "Kansas", "Company Name": "Wisozk Ltd"}, {"Address Line 1": "1645 Achsah Cove", "Address Line 2": "Apt. 868", "City": "Schoenchester", "Zipcode": "48519", "Company Website": "mccullough.com", "Company Description": "expedite seamless partnerships", "Phone": "1-537-304-6170x631", "State": "Alaska", "Company Name": "Kunde and Sons"}, {"Address Line 1": "50776 Ciera Pike", "Address Line 2": "Suite 792", "City": "West Jayceborough", "Zipcode": "69917", "Company Website": "dickensmohr.info", "Company Description": "facilitate back-end e-markets", "Phone": "08995921173", "State": "NorthDakota", "Company Name": "Mills PLC"}, {"Address Line 1": "167 Ura Points", "Address Line 2": "Apt. 590", "City": "Roswellville", "Zipcode": "60985", "Company Website": "emmerichboyer.com", "Company Description": "innovate 24/7 applications", "Phone": "444-233-1521", "State": "Texas", "Company Name": "Kulas Group"}, {"Address Line 1": "664 Lexi Lane", "Address Line 2": "Suite 282", "City": "Lake Clem", "Zipcode": "89942", "Company Website": "kohler.com", "Company Description": "aggregate cutting-edge e-commerce", "Phone": "(632)431-4008", "State": "Alaska", "Company Name": "Weber-Nicolas"}, {"Address Line 1": "67986 Berton Station Suite 390", "Address Line 2": "Apt. 112", "City": "Lockmanfurt", "Zipcode": "96493", "Company Website": "simoniscollier.org", "Company Description": "benchmark strategic ROI", "Phone": "09030287407", "State": "Michigan", "Company Name": "Stehr Group"}, {"Address Line 1": "32732 Keebler Shoals Apt. 501", "Address Line 2": "Apt. 181", "City": "New Marenhaven", "Zipcode": "86388", "Company Website": "macejkovicmccullough.com", "Company Description": "innovate strategic functionalities", "Phone": "00112321888", "State": "Connecticut", "Company Name": "Keebler-Bahringer"}, {"Address Line 1": "246 Meg Dam Suite 093", "Address Line 2": "Apt. 703", "City": "Lake Reagan", "Zipcode": "92670", "Company Website": "weissnatmohr.com", "Company Description": "facilitate killer portals", "Phone": "+73(4)2906700435", "State": "Utah", "Company Name": "Ortiz-Goldner"}, {"Address Line 1": "1668 Emaline Mission", "Address Line 2": "Apt. 601", "City": "Port Sherree", "Zipcode": "17113", "Company Website": "stoltenberg.org", "Company Description": "drive intuitive initiatives", "Phone": "282.450.2919x96232", "State": "Wyoming", "Company Name": "Turcotte Inc"}, {"Address Line 1": "9228 Wiza Ports Apt. 031", "Address Line 2": "Apt. 266", "City": "Lake Ernestine", "Zipcode": "07388", "Company Website": "feeney.com", "Company Description": "mesh bleeding-edge action-items", "Phone": "686.433.3227", "State": "SouthCarolina", "Company Name": "Wilderman Ltd"}, {"Address Line 1": "72178 Jaskolski Crossroad", "Address Line 2": "Suite 515", "City": "South Alciebury", "Zipcode": "73917", "Company Website": "spencerfahey.net", "Company Description": "deploy B2C action-items", "Phone": "654-050-0737", "State": "Iowa", "Company Name": "Hansen-Bartell"}, {"Address Line 1": "991 Barton Drive Apt. 056", "Address Line 2": "Suite 674", "City": "North Hortonfurt", "Zipcode": "97854", "Company Website": "rippin.com", "Company Description": "harness next-generation communities", "Phone": "041.836.4866x36510", "State": "Mississippi", "Company Name": "Macejkovic, McGlynn and Skiles"}, {"Address Line 1": "927 Emiliano Unions", "Address Line 2": "Suite 854", "City": "Skilesview", "Zipcode": "42516", "Company Website": "rowe.com", "Company Description": "streamline user-centric e-business", "Phone": "045-845-6545", "State": "Delaware", "Company Name": "Mueller-Bergnaum"}, {"Address Line 1": "24799 Wolf Fork", "Address Line 2": "Apt. 509", "City": "Merylland", "Zipcode": "20524", "Company Website": "bernier.biz", "Company Description": "envisioneer bleeding-edge architectures", "Phone": "1-666-804-1715", "State": "NewMexico", "Company Name": "Pollich LLC"}, {"Address Line 1": "836 Lebsack Forest Apt. 150", "Address Line 2": "Suite 550", "City": "Fredfort", "Zipcode": "02370", "Company Website": "kuvalisdickens.com", "Company Description": "e-enable frictionless users", "Phone": "1-601-734-0347", "State": "Missouri", "Company Name": "Macejkovic Ltd"}, {"Address Line 1": "847 Valentine Crossroad", "Address Line 2": "Apt. 861", "City": "Port Cassie", "Zipcode": "33971", "Company Website": "raynor.com", "Company Description": "cultivate extensible platforms", "Phone": "406-177-6494x37732", "State": "NorthDakota", "Company Name": "Hilpert Group"}, {"Address Line 1": "993 Yundt Square Apt. 282", "Address Line 2": "Suite 177", "City": "Anitrastad", "Zipcode": "18089", "Company Website": "schillerlangosh.com", "Company Description": "leverage granular eyeballs", "Phone": "190-673-5723", "State": "NewJersey", "Company Name": "Osinski, Hermiston and Marvin"}, {"Address Line 1": "79105 Ula Summit", "Address Line 2": "Apt. 314", "City": "Berthaview", "Zipcode": "84131", "Company Website": "stracke.info", "Company Description": "utilize global solutions", "Phone": "(677)640-6790x7566", "State": "Nebraska", "Company Name": "Beahan Ltd"}, {"Address Line 1": "365 Torp Ports", "Address Line 2": "Apt. 207", "City": "Legrostown", "Zipcode": "07661", "Company Website": "gottliebgrimes.com", "Company Description": "streamline compelling infrastructures", "Phone": "310-178-8745x58974", "State": "Maine", "Company Name": "Ernser-Tillman"}, {"Address Line 1": "6980 Borer Extensions Suite 940", "Address Line 2": "Apt. 024", "City": "Corwinfort", "Zipcode": "34884", "Company Website": "gleichner.com", "Company Description": "disintermediate cross-media methodologies", "Phone": "725-850-3465x526", "State": "Nevada", "Company Name": "Ledner-Hessel"}, {"Address Line 1": "45580 Adams Rest", "Address Line 2": "Suite 364", "City": "Gavinville", "Zipcode": "43655", "Company Website": "sawaynmckenzie.com", "Company Description": "grow revolutionary interfaces", "Phone": "00439947730", "State": "Colorado", "Company Name": "Schimmel, Bruen and Schamberger"}, {"Address Line 1": "7030 Garett Roads", "Address Line 2": "Suite 556", "City": "Langworthmouth", "Zipcode": "35321", "Company Website": "ondricka.com", "Company Description": "optimize distributed eyeballs", "Phone": "068.880.4547", "State": "Arizona", "Company Name": "White, Lowe and Predovic"}, {"Address Line 1": "94366 Hagenes Isle", "Address Line 2": "Apt. 472", "City": "East Cristopherview", "Zipcode": "87682", "Company Website": "daugherty.com", "Company Description": "engineer sticky e-services", "Phone": "1-627-913-4307", "State": "Alaska", "Company Name": "Mohr, Grady and Bahringer"}, {"Address Line 1": "9900 Lois Estates Suite 841", "Address Line 2": "Apt. 129", "City": "Jerrelfort", "Zipcode": "80826", "Company Website": "feeney.com", "Company Description": "iterate 24/7 e-markets", "Phone": "(868)833-0651x3176", "State": "NewYork", "Company Name": "VonRueden-Durgan"}, {"Address Line 1": "909 Orn Estate Apt. 720", "Address Line 2": "Suite 705", "City": "Gerholdmouth", "Zipcode": "62448", "Company Website": "ornmoen.org", "Company Description": "transform ubiquitous infrastructures", "Phone": "1-172-738-2718x460", "State": "Oregon", "Company Name": "Rohan Group"}, {"Address Line 1": "248 Pagac Cliffs Suite 246", "Address Line 2": "Apt. 292", "City": "Abshireport", "Zipcode": "60534", "Company Website": "okeefe.net", "Company Description": "engage efficient deliverables", "Phone": "515.005.5400x211", "State": "Kansas", "Company Name": "Ortiz-O'Keefe"}, {"Address Line 1": "68156 O'Conner Corners Apt. 014", "Address Line 2": "Apt. 955", "City": "Lake Dante", "Zipcode": "72530", "Company Website": "flatley.net", "Company Description": "re-contextualize granular metrics", "Phone": "833-485-8621", "State": "Connecticut", "Company Name": "O'Keefe Ltd"}, {"Address Line 1": "8633 Dino Point Suite 818", "Address Line 2": "Suite 817", "City": "West Chalmer", "Zipcode": "76519", "Company Website": "wilkinson.com", "Company Description": "monetize proactive technologies", "Phone": "(771)958-0973x2668", "State": "Arizona", "Company Name": "Paucek-Bernier"}, {"Address Line 1": "113 Lindgren Points", "Address Line 2": "Apt. 251", "City": "Longhaven", "Zipcode": "99352", "Company Website": "mayerkuhlman.com", "Company Description": "e-enable interactive initiatives", "Phone": "113-748-3135x797", "State": "NewMexico", "Company Name": "Emmerich, Cartwright and Larkin"}, {"Address Line 1": "877 Purdy Extension", "Address Line 2": "Apt. 247", "City": "Tillmanberg", "Zipcode": "04291", "Company Website": "hayes.biz", "Company Description": "transform dot-com solutions", "Phone": "(300)350-7005x889", "State": "Washington", "Company Name": "Hane, Wilkinson and Little"}, {"Address Line 1": "12603 Yahaira Ports", "Address Line 2": "Apt. 069", "City": "Arlandfort", "Zipcode": "96118", "Company Website": "brownstamm.org", "Company Description": "synthesize integrated paradigms", "Phone": "(271)017-1886", "State": "Delaware", "Company Name": "Stamm, McDermott and O'Keefe"}, {"Address Line 1": "454 Thresa Path Suite 607", "Address Line 2": "Suite 913", "City": "Welchbury", "Zipcode": "39820", "Company Website": "gaylord.com", "Company Description": "benchmark viral channels", "Phone": "372.885.8917x960", "State": "Montana", "Company Name": "Beier, Welch and Rippin"}, {"Address Line 1": "4223 Kassulke Hollow Suite 478", "Address Line 2": "Apt. 743", "City": "Chuckchester", "Zipcode": "35410", "Company Website": "jerdealtenwerth.com", "Company Description": "morph cutting-edge experiences", "Phone": "1-119-055-0184x332", "State": "NewMexico", "Company Name": "Rippin Inc"}, {"Address Line 1": "78072 Oris Trafficway Apt. 377", "Address Line 2": "Suite 510", "City": "Russelborough", "Zipcode": "07688", "Company Website": "mayer.org", "Company Description": "extend open-source experiences", "Phone": "(804)701-0648", "State": "Massachusetts", "Company Name": "Friesen-Johnston"}, {"Address Line 1": "369 Koch Stravenue", "Address Line 2": "Suite 305", "City": "New Evelenamouth", "Zipcode": "12764", "Company Website": "swift.net", "Company Description": "visualize global mindshare", "Phone": "286-399-3865", "State": "Wisconsin", "Company Name": "Hermann-Hackett"}, {"Address Line 1": "840 Shanahan Flats", "Address Line 2": "Apt. 321", "City": "Lake Quinnfurt", "Zipcode": "03328", "Company Website": "okeefe.com", "Company Description": "synergize intuitive web services", "Phone": "560.287.9513x0248", "State": "Wisconsin", "Company Name": "Homenick, Christiansen and Murray"}, {"Address Line 1": "9845 Lotta Corners", "Address Line 2": "Apt. 957", "City": "Lake Gee", "Zipcode": "19100", "Company Website": "waltergottlieb.net", "Company Description": "visualize value-added platforms", "Phone": "+76(1)8035715781", "State": "Utah", "Company Name": "Casper-Sawayn"}, {"Address Line 1": "381 Upton Villages Suite 550", "Address Line 2": "Suite 828", "City": "Port Roll", "Zipcode": "87327", "Company Website": "marks.com", "Company Description": "redefine plug-and-play relationships", "Phone": "1-284-282-7779", "State": "Oklahoma", "Company Name": "Waters-Kertzmann"}, {"Address Line 1": "80013 Jamey Village Suite 569", "Address Line 2": "Apt. 823", "City": "North Averyland", "Zipcode": "94802", "Company Website": "aufderhar.com", "Company Description": "transform ubiquitous vortals", "Phone": "02622671430", "State": "Kansas", "Company Name": "Abbott, Gerlach and Price"}, {"Address Line 1": "4895 Phoenix Common", "Address Line 2": "Suite 967", "City": "Runtestad", "Zipcode": "16735", "Company Website": "mclaughlin.com", "Company Description": "expedite virtual schemas", "Phone": "09566994263", "State": "Illinois", "Company Name": "Kuhic Inc"}, {"Address Line 1": "19835 Kovacek Common", "Address Line 2": "Apt. 892", "City": "Smithbury", "Zipcode": "70613", "Company Website": "ondricka.info", "Company Description": "repurpose distributed synergies", "Phone": "1-658-979-8003x25734", "State": "Alaska", "Company Name": "Feest LLC"}, {"Address Line 1": "73071 Lilah Gateway Suite 837", "Address Line 2": "Apt. 057", "City": "Maggiotown", "Zipcode": "54200", "Company Website": "ankundingkonopelski.com", "Company Description": "incubate interactive niches", "Phone": "778.696.7242x3692", "State": "Kentucky", "Company Name": "Harber Group"}, {"Address Line 1": "321 O'Conner Skyway", "Address Line 2": "Apt. 027", "City": "Klockomouth", "Zipcode": "98997", "Company Website": "hoppe.com", "Company Description": "integrate compelling deliverables", "Phone": "456-118-4544x469", "State": "Washington", "Company Name": "Klocko Inc"}, {"Address Line 1": "9265 Samantha Creek Suite 845", "Address Line 2": "Apt. 024", "City": "Huelton", "Zipcode": "54550", "Company Website": "skilesbradtke.com", "Company Description": "drive turn-key models", "Phone": "581-200-9983x71338", "State": "Tennessee", "Company Name": "Anderson-McGlynn"}, {"Address Line 1": "0695 Murray Row Suite 513", "Address Line 2": "Apt. 061", "City": "East Admiralview", "Zipcode": "37913", "Company Website": "strosinbeahan.net", "Company Description": "cultivate dot-com portals", "Phone": "(039)470-9539x48100", "State": "Oregon", "Company Name": "Jaskolski, Koch and Feest"}, {"Address Line 1": "3554 Taniyah Parks", "Address Line 2": "Apt. 860", "City": "West Veronica", "Zipcode": "77475", "Company Website": "ankunding.info", "Company Description": "expedite extensible communities", "Phone": "+46(4)4451552519", "State": "WestVirginia", "Company Name": "Shields, Strosin and Zemlak"}, {"Address Line 1": "615 Kassulke Ports", "Address Line 2": "Suite 218", "City": "Port Blaine", "Zipcode": "91374", "Company Website": "schaefer.org", "Company Description": "utilize 24/7 web-readiness", "Phone": "284-465-6071x13463", "State": "Maine", "Company Name": "Hammes LLC"}, {"Address Line 1": "125 Margie Plaza", "Address Line 2": "Apt. 968", "City": "Edrisfort", "Zipcode": "13585", "Company Website": "powlowski.com", "Company Description": "integrate synergistic web services", "Phone": "349-907-3534x269", "State": "Michigan", "Company Name": "Lubowitz, Cummings and Schaefer"}, {"Address Line 1": "86472 Braun Field Suite 587", "Address Line 2": "Suite 259", "City": "North Martha", "Zipcode": "47401", "Company Website": "ernser.org", "Company Description": "cultivate extensible deliverables", "Phone": "1-985-584-5673", "State": "Nebraska", "Company Name": "Trantow-Raynor"}, {"Address Line 1": "093 Stark Common Suite 707", "Address Line 2": "Apt. 113", "City": "Lake Windy", "Zipcode": "41540", "Company Website": "bode.net", "Company Description": "optimize virtual technologies", "Phone": "1-966-936-7287", "State": "NewMexico", "Company Name": "Mohr-Waelchi"}, {"Address Line 1": "44839 Conn Corners Apt. 246", "Address Line 2": "Apt. 880", "City": "North Jonathanville", "Zipcode": "21224", "Company Website": "gutkowski.net", "Company Description": "re-intermediate sticky methodologies", "Phone": "393-511-6294x349", "State": "Colorado", "Company Name": "Durgan LLC"}, {"Address Line 1": "9323 Terry Passage", "Address Line 2": "Suite 071", "City": "Port Hellenport", "Zipcode": "97266", "Company Website": "toy.com", "Company Description": "orchestrate efficient mindshare", "Phone": "1-697-917-1014", "State": "Minnesota", "Company Name": "Frami, Jacobson and Jakubowski"}, {"Address Line 1": "6945 McLaughlin Squares", "Address Line 2": "Apt. 318", "City": "Ellarmouth", "Zipcode": "61091", "Company Website": "vandervort.com", "Company Description": "empower scalable mindshare", "Phone": "(086)296-4650", "State": "RhodeIsland", "Company Name": "Stamm Ltd"}, {"Address Line 1": "00311 Mayer Prairie Apt. 566", "Address Line 2": "Apt. 570", "City": "Beerstad", "Zipcode": "64692", "Company Website": "gislason.net", "Company Description": "integrate world-class niches", "Phone": "1-844-650-1861x9934", "State": "Indiana", "Company Name": "Walter, Keeling and Williamson"}, {"Address Line 1": "744 Kautzer Drives Apt. 658", "Address Line 2": "Suite 005", "City": "Wanitabury", "Zipcode": "63121", "Company Website": "brakus.com", "Company Description": "syndicate back-end solutions", "Phone": "(609)549-6306", "State": "Maryland", "Company Name": "Steuber and Sons"}, {"Address Line 1": "732 Walsh Gardens Suite 606", "Address Line 2": "Apt. 649", "City": "Doyleport", "Zipcode": "85716", "Company Website": "brekkeokuneva.com", "Company Description": "deploy user-centric architectures", "Phone": "096-594-2783x0910", "State": "Maine", "Company Name": "Wiza Group"}, {"Address Line 1": "221 Jasmine Keys Apt. 835", "Address Line 2": "Suite 543", "City": "Odaside", "Zipcode": "63797", "Company Website": "kshlerin.com", "Company Description": "matrix global technologies", "Phone": "1-646-498-8853x705", "State": "Ohio", "Company Name": "Goodwin LLC"}, {"Address Line 1": "377 Murazik Throughway", "Address Line 2": "Suite 222", "City": "Adamsberg", "Zipcode": "53152", "Company Website": "lakinjones.com", "Company Description": "leverage proactive communities", "Phone": "+42(8)6035622847", "State": "Pennsylvania", "Company Name": "Braun, Volkman and Pouros"}, {"Address Line 1": "49012 Balistreri Islands Apt. 733", "Address Line 2": "Suite 791", "City": "West Caitlinchester", "Zipcode": "45892", "Company Website": "kunde.com", "Company Description": "morph magnetic bandwidth", "Phone": "614-441-1763x73612", "State": "Alaska", "Company Name": "Kertzmann-Becker"}, {"Address Line 1": "2339 Mayert Tunnel Apt. 035", "Address Line 2": "Apt. 583", "City": "Port Olen", "Zipcode": "15237", "Company Website": "roberts.com", "Company Description": "grow vertical metrics", "Phone": "187.563.6021", "State": "Arkansas", "Company Name": "Schimmel PLC"}, {"Address Line 1": "60671 Stark Valleys Suite 982", "Address Line 2": "Suite 498", "City": "North Elza", "Zipcode": "11602", "Company Website": "cruickshank.com", "Company Description": "synergize dot-com initiatives", "Phone": "(887)439-0607", "State": "Pennsylvania", "Company Name": "Abshire Group"}, {"Address Line 1": "52118 Bailey Manor Suite 879", "Address Line 2": "Apt. 362", "City": "Port Sabastianfurt", "Zipcode": "01891", "Company Website": "rohan.biz", "Company Description": "re-intermediate turn-key schemas", "Phone": "195.574.4734", "State": "Oregon", "Company Name": "Bahringer Inc"}, {"Address Line 1": "059 Okuneva Manors Apt. 241", "Address Line 2": "Apt. 289", "City": "Port Fleming", "Zipcode": "16324", "Company Website": "senger.com", "Company Description": "integrate global networks", "Phone": "1-710-709-6740", "State": "Iowa", "Company Name": "Hansen, Orn and Bernier"}, {"Address Line 1": "7319 Leonore Street Apt. 000", "Address Line 2": "Apt. 496", "City": "Jacobsonfort", "Zipcode": "81984", "Company Website": "littel.info", "Company Description": "re-intermediate innovative e-tailers", "Phone": "885-852-7982", "State": "Kansas", "Company Name": "Gusikowski, O'Keefe and Mann"}, {"Address Line 1": "39240 Star Drives", "Address Line 2": "Apt. 144", "City": "New Butchfurt", "Zipcode": "69141", "Company Website": "collinshessel.biz", "Company Description": "target bleeding-edge info-mediaries", "Phone": "(888)207-6055", "State": "Alabama", "Company Name": "Schowalter-Borer"}, {"Address Line 1": "90071 Brooks Square", "Address Line 2": "Apt. 967", "City": "Lake Nortonmouth", "Zipcode": "46594", "Company Website": "botsfordstokes.com", "Company Description": "enhance plug-and-play partnerships", "Phone": "(774)278-7610x712", "State": "SouthCarolina", "Company Name": "Hudson-Mante"}, {"Address Line 1": "94068 Bergstrom Wells Suite 672", "Address Line 2": "Apt. 903", "City": "Lucettaview", "Zipcode": "11929", "Company Website": "schamberger.com", "Company Description": "expedite rich portals", "Phone": "(941)985-5361x99138", "State": "Indiana", "Company Name": "Hane and Sons"}, {"Address Line 1": "35932 McKenzie Radial Apt. 773", "Address Line 2": "Apt. 136", "City": "New Anthonyhaven", "Zipcode": "32406", "Company Website": "hintz.com", "Company Description": "evolve cross-platform vortals", "Phone": "+11(1)2338482921", "State": "Michigan", "Company Name": "Hintz LLC"}, {"Address Line 1": "955 Gladys Club", "Address Line 2": "Suite 546", "City": "Cassinbury", "Zipcode": "40788", "Company Website": "gislasonkris.info", "Company Description": "maximize virtual interfaces", "Phone": "249-679-9385x9508", "State": "NewMexico", "Company Name": "Schulist, Rau and Luettgen"}, {"Address Line 1": "9307 Gerhold Run Apt. 136", "Address Line 2": "Apt. 026", "City": "Milliemouth", "Zipcode": "20130", "Company Website": "farrellbeahan.com", "Company Description": "orchestrate cross-platform web-readiness", "Phone": "(685)776-3936x215", "State": "Virginia", "Company Name": "Ledner Group"}]